SAUDISAT 1C (SO-50)     
1 27607U 02058C   21283.90678289  .00000169  00000-0  44631-4 0  9990
2 27607  64.5566 345.2810 0055052 347.5316  12.4420 14.75800625 11547
CUTE-1 (CO-55)          
1 27844U 03031E   21283.91597502  .00000089  00000-0  59513-4 0  9990
2 27844  98.6822 290.3848 0010966 103.2686 256.9715 14.22338701948393
CUBESAT XI-IV (CO-57)   
1 27848U 03031J   21283.80289059  .00000071  00000-0  52002-4 0  9994
2 27848  98.6875 290.8300 0010761 115.8212 244.4077 14.21911963948209
MOZHAYETS 4 (RS-22)     
1 27939U 03042A   21284.19673570  .00000229  00000-0  49592-4 0  9990
2 27939  98.1580  60.5946 0011592 275.0526  84.9344 14.67035006964494
CUBESAT XI-V            
1 28895U 05043F   21284.07314870  .00000377  00000-0  80962-4 0  9997
2 28895  98.0751  54.8926 0016305 202.1837 157.8662 14.63975379851155
FALCONSAT-3             
1 30776U 07006E   21283.84945194  .00010585  00000-0  24124-3 0  9991
2 30776  35.4341  77.9222 0002715 259.3117 100.7306 15.42153074810926
CUTE-1.7+APD II (CO-65) 
1 32785U 08021C   21283.73347774  .00000762  00000-0  86887-4 0  9990
2 32785  97.6248 258.1841 0012610 348.4587  11.6339 14.88832962729328
DELFI-C3 (DO-64)        
1 32789U 08021G   21283.90951502  .00004946  00000-0  31132-3 0  9993
2 32789  97.3672 314.8123 0013169 104.4684 255.8008 15.09559587734246
SEEDS II (CO-66)        
1 32791U 08021J   21283.68834440  .00001201  00000-0  12501-3 0  9992
2 32791  97.5833 263.9327 0011878 307.3357  52.6779 14.91566518729958
YUBILEINY (RS-30)       
1 32953U 08025A   21284.04305391  .00000021  00000-0  80971-4 0  9991
2 32953  82.5072 339.0518 0020720  86.4966 273.8482 12.43104907607342
KKS-1 (KISEKI)          
1 33499U 09002H   21283.87717119  .00000268  00000-0  47003-4 0  9990
2 33499  98.2497 156.3111 0009935  38.9505 321.2418 14.75710901683433
SWISSCUBE               
1 35932U 09051B   21284.10596537  .00000260  00000-0  69411-4 0  9993
2 35932  98.5935 127.7255 0008699  91.8756 268.3437 14.56591139639836
BEESAT-1                
1 35933U 09051C   21283.51778103  .00000208  00000-0  57537-4 0  9997
2 35933  98.5890 128.8917 0006823 103.9660 256.2297 14.56641497639787
ITUPSAT1                
1 35935U 09051E   21284.07175306  .00000195  00000-0  55763-4 0  9991
2 35935  98.5991 129.5766 0009149 105.0008 255.2202 14.55769628639628
XIWANG-1 (HOPE-1)       
1 36122U 09072B   21283.90335186 -.00000021  00000-0  57452-4 0  9994
2 36122 100.1471 259.8479 0007259 191.0461 169.0494 13.16362985567970
JUGNU                   
1 37839U 11058B   21284.08635144  .00000374  00000-0  57093-4 0  9995
2 37839  19.9609 247.9091 0018680 287.2991 153.7122 14.12728458516947
SRMSAT                  
1 37841U 11058D   21283.42978956  .00000338  00000-0  40536-4 0  9990
2 37841  19.9730 326.1517 0012019 116.3180 273.8208 14.10706520515896
M-CUBED & EXP-1 PRIME   
1 37855U 11061F   21283.93854872  .00005034  00000-0  24341-3 0  9998
2 37855 101.7223 267.3349 0165237  87.0172 274.9936 15.08283583543587
STRAND-1                
1 39090U 13009E   21282.81364092  .00000047  00000-0  31399-4 0  9992
2 39090  98.4194 122.2777 0008193 302.7320  57.3076 14.35188694451449
SOMP                    
1 39134U 13015E   21284.08738530  .00005047  00000-0  21924-3 0  9998
2 39134  64.8628 156.2498 0019933 314.0004  45.9481 15.23296106469205
BEESAT-3                
1 39135U 13015F   21283.87559184  .00004332  00000-0  20899-3 0  9997
2 39135  64.8675 188.0667 0017857 332.0428  27.9738 15.19932398468144
BEESAT-2                
1 39136U 13015G   21283.92371145  .00003893  00000-0  19257-3 0  9990
2 39136  64.8761 194.7947 0017460 241.2186 118.7187 15.19244684467979
ZACUBE-1 (TSHEPISOSAT)  
1 39417U 13066B   21283.93949744  .00000624  00000-0  83458-4 0  9999
2 39417  97.6056 262.3591 0059394 141.3603 219.1884 14.81618932426171
GOMX-1                  
1 39430U 13066Q   21284.04024535  .00000374  00000-0  75554-4 0  9999
2 39430  97.8102 200.4617 0151582 110.5675 251.1864 14.59688865419905
CUBEBUG-2 (LO-74)       
1 39440U 13066AA  21283.87926934  .00000527  00000-0  79534-4 0  9996
2 39440  97.6905 247.6121 0078608 220.3200 139.2166 14.76343809423450
FUNCUBE-1 (AO-73)       
1 39444U 13066AE  21283.91971586  .00000759  00000-0  97989-4 0  9999
2 39444  97.5955 264.7230 0058629 131.2622 229.3663 14.82546928425132
UWE-3                   
1 39446U 13066AG  21283.92459221  .00000544  00000-0  77738-4 0  9991
2 39446  97.6510 254.4623 0069379 181.5858 178.5145 14.78882836424165
SPROUT                  
1 39770U 14029E   21284.02763241  .00002125  00000-0  23335-3 0  9993
2 39770  97.9248  35.2755 0008686 180.2106 179.9114 14.88729621400532
UNISAT-6                
1 40012U 14033C   21283.80756979  .00000478  00000-0  77650-4 0  9993
2 40012  97.6687 120.1337 0056662 246.7382 112.7856 14.74394962393190
DUCHIFAT-1              
1 40021U 14033M   21283.79752212  .00001416  00000-0  14700-3 0  9996
2 40021  97.9806 225.2666 0013486 138.8241 221.3997 14.91525076397479
QB50P1                  
1 40025U 14033R   21284.09925899  .00000962  00000-0  10673-3 0  9997
2 40025  97.9364 215.1117 0012848 151.9723 208.2188 14.89572923397143
NUDT-PHONESAT           
1 40900U 15049B   21284.23783656  .00006973  00000-0  26113-3 0  9990
2 40900  97.4177 297.6546 0013416  91.1322 332.0177 15.27519559336499
ZDPS 2A                 
1 40901U 15049C   21284.20176575  .00003512  00000-0  16555-3 0  9999
2 40901  97.4638 290.1081 0014066 132.1356 290.5648 15.20070437335556
ZDPS 2B                 
1 40902U 15049D   21284.24268868  .00003506  00000-0  16507-3 0  9991
2 40902  97.4688 287.5611 0014138 129.7472 286.5399 15.20116998335531
XW-2A                   
1 40903U 15049E   21284.17897167  .00006455  00000-0  13232-3 0  9992
2 40903  97.2224 338.2957 0010528 318.5112 126.4771 15.46355469340674
KAITUO 1A               
1 40904U 15049F   21284.23385598  .00001056  00000-0  57656-4 0  9991
2 40904  97.4908 284.5663 0014933 150.1471 306.0089 15.16413996335089
2015-049G               
1 40905U 15049G   21284.22260477  .00000909  00000-0  51870-4 0  9997
2 40905  97.5060 281.6603 0016062 151.2734 265.2214 15.15189074334868
XW-2C                   
1 40906U 15049H   21284.25220975  .00001912  00000-0  99814-4 0  9995
2 40906  97.4897 285.2032 0015395 140.0649 232.5892 15.17038711335123
XW-2D                   
1 40907U 15049J   21284.22870546  .00001906  00000-0  98556-4 0  9993
2 40907  97.4890 285.0162 0014901 136.8258 279.7794 15.17397520335153
LILACSAT-2              
1 40908U 15049K   21284.16449978  .00000810  00000-0  47353-4 0  9990
2 40908  97.5096 282.6261 0016312 154.4027 267.9369 15.14612713334746
XW-2F                   
1 40910U 15049M   21284.22866959  .00002926  00000-0  14060-3 0  9990
2 40910  97.4749 288.2600 0015488 123.0233 297.6491 15.19527946335303
XW-2B                   
1 40911U 15049N   21284.23868350  .00001968  00000-0  10191-3 0  9995
2 40911  97.4890 285.6905 0014749 137.9964 282.4700 15.17310862335045
KAITUO 1B               
1 40912U 15049P   21284.03035382  .00003455  00000-0  15336-3 0  9994
2 40912  97.4450 292.4482 0015866  97.5992 320.5383 15.22132479335770
TIANWANG 1A (TW-1A)     
1 40928U 15051D   21284.15159153  .00010866  00000-0  21291-3 0  9991
2 40928  97.0696 306.3424 0007824 216.4838 216.9824 15.47512023339576
LAPAN-A2                
1 40931U 15052B   21283.22591362  .00000860  00000-0  30557-4 0  9994
2 40931   5.9937 153.8444 0013747 231.8186 128.0706 14.76694719326292
E-ST@R-II               
1 41459U 16025D   21284.17301884  .00003325  00000-0  16142-3 0  9996
2 41459  98.1592  67.4399 0158705  32.8929 328.2029 15.08830094299864
AAUSAT 4                
1 41460U 16025E   21284.15336417  .00004663  00000-0  21343-3 0  9991
2 41460  98.1588  71.9035 0143996  14.8420 345.6956 15.12239581300190
NUSAT-1 (FRESCO)        
1 41557U 16033B   21284.17707701  .00004433  00000-0  15451-3 0  9995
2 41557  97.3937  17.5108 0012690 177.6387 269.8880 15.30100352299226
BEESAT-4                
1 41619U 16040W   21283.88096933  .00005215  00000-0  20410-3 0  9997
2 41619  97.2560 336.7027 0008716 285.0380  74.9894 15.26212045282616
CAS-2T & KS-1Q          
1 41847U 16066G   21283.89207012  .00000321  00000-0  59394-4 0  9998
2 41847  98.5885 343.4307 0364149 235.6485 120.9754 14.38249116258476
NAYIF-1 (EO-88)         
1 42017U 17008BX  21283.71346984  .00005518  00000-0  19870-3 0  9995
2 42017  97.3040 349.2313 0007257  67.7084 292.4925 15.28959397258867
ZHUHAI-1 02 (CAS-4B)    
1 42759U 17034B   21284.09643749  .00001093  00000-0  78540-4 0  9992
2 42759  43.0180 265.2294 0007313 175.1365 269.8294 15.10429310238635
ZHUHAI-1 01 (CAS-4A)    
1 42761U 17034D   21284.08071091  .00001231  00000-0  86582-4 0  9998
2 42761  43.0174 264.2856 0007738 177.2811 267.7832 15.10517221238638
MAX VALIER SAT          
1 42778U 17036P   21283.87787649  .00003302  00000-0  13865-3 0  9991
2 42778  97.2426 328.6569 0013250 124.9204 235.3281 15.24058016238865
RADFXSAT (FOX-1B)       
1 43017U 17073E   21283.97097644  .00001896  00000-0  15134-3 0  9996
2 43017  97.6939 183.3166 0252580 283.5159  73.8029 14.79832620210209
FOX-1D (AO-92)          
1 43137U 18004AC  21283.78002791  .00003772  00000-0  15040-3 0  9993
2 43137  97.3970 356.6085 0009341 155.2668 204.9020 15.25771873208247
DIWATA-2B               
1 43678U 18084H   21284.09160148 -.00000130  00000-0 -70824-5 0  9997
2 43678  97.9389  50.0681 0010699  35.9089 324.2844 14.91800749160674
ES'HAIL 2               
1 43700U 18090A   21284.13091955  .00000136  00000-0  00000+0 0  9991
2 43700   0.0119 223.8065 0002140 355.2501 233.8143  1.00270545 10774
FOX-1CLIFF (AO-95)      
1 43770U 18099N   21284.14387598  .00001332  00000-0  12524-3 0  9996
2 43770  97.6544 351.7192 0015257  36.4943 323.7314 14.95468214155744
